[{"OBJECT_NAME":"ION SCV-017","OBJECT_ID":"2025-052W","EPOCH":"2026-03-09T17:11:44.577024","MEAN_MOTION":15.26881798,"ECCENTRICITY":0.0023746,"INCLINATION":97.4016,"RA_OF_ASC_NODE":324.7516,"ARG_OF_PERICENTER":44.9875,"MEAN_ANOMALY":315.3282,"EPHEMERIS_TYPE":0,"CLASSIFICATION_TYPE":"U","NORAD_CAT_ID":63230,"ELEMENT_SET_NO":999,"REV_AT_EPOCH":5485,"BSTAR":0.00024539061,"MEAN_MOTION_DOT":6.457e-5,"MEAN_MOTION_DDOT":0},{"OBJECT_NAME":"STARLINK-34205","OBJECT_ID":"2025-144T","EPOCH":"2026-03-09T13:44:31.586784","MEAN_MOTION":15.30199271,"ECCENTRICITY":0.000114,"INCLINATION":53.16,"RA_OF_ASC_NODE":181.6051,"ARG_OF_PERICENTER":84.7682,"MEAN_ANOMALY":275.3449,"EPHEMERIS_TYPE":0,"CLASSIFICATION_TYPE":"U","NORAD_CAT_ID":64741,"ELEMENT_SET_NO":999,"REV_AT_EPOCH":3969,"BSTAR":0.0012715,"MEAN_MOTION_DOT":0.0003749,"MEAN_MOTION_DDOT":0}]
